NORAD_CAT_ID,OBJECT_NAME,OBJECT_TYPE,EPOCH,MEAN_MOTION,ECCENTRICITY,INCLINATION,RA_OF_ASC_NODE,ARG_OF_PERICENTER,MEAN_ANOMALY,BSTAR,MEAN_MOTION_DOT,MEAN_MOTION_DDOT,TLE_LINE0,TLE_LINE1,TLE_LINE2,SEMIMAJOR_AXIS,PERIOD,APOGEE,PERIGEE,DECAYED
53621.0,STARLINK-4608,PAYLOAD,2022-12-03 06:00:00,15.08854086,0.0002088,53.2161,187.1367,53.4002,95.0065,-0.0019101,-0.00030571,0.0,0 STARLINK-4608,1 53621U 22104AK  22337.25001157 -.00030571  00000-0 -19101-2 0  9996,2 53621  53.2161 187.1367 0002088  53.4002  95.0065 15.08854086 15042,6917.837,95.437,541.1469999999998,538.258,0.0
53621.0,STARLINK-4608,PAYLOAD,2022-12-03 14:00:01,15.0883963,0.0002028,53.2163,185.6396,59.3579,100.6442,0.0010543,0.00016531,0.0,0 STARLINK-4608,1 53621U 22104AK  22337.58334491  .00016531  00000-0  10543-2 0  9991,2 53621  53.2163 185.6396 0002028  59.3579 100.6442 15.08839630  1301,6917.882,95.438,541.149,538.344,0.0
53621.0,STARLINK-4608,PAYLOAD,2022-12-03 22:00:00,15.08837648,0.0002178,53.2159,184.145,54.0994,117.507,0.00044389,6.783e-05,0.0,0 STARLINK-4608,1 53621U 22104AK  22337.91667824  .00006783  00000-0  44389-3 0  9991,2 53621  53.2159 184.1450 0002178  54.0994 117.5070 15.08837648  1301,6917.888000000001,95.438,541.259,538.246,0.0
53621.0,STARLINK-4608,PAYLOAD,2022-12-04 14:00:01,15.08846639,0.0002002,53.2155,181.1507,60.5168,134.289,-0.0014815,-0.00023794,0.0,0 STARLINK-4608,1 53621U 22104AK  22338.58334491 -.00023794  00000-0 -14815-2 0  9999,2 53621  53.2155 181.1507 0002002  60.5168 134.2890 15.08846639  1304,6917.86,95.437,541.11,538.34,0.0
53621.0,STARLINK-4608,PAYLOAD,2022-12-04 22:00:00,15.08815525,0.0002131,53.2152,179.65599999999995,53.8494,152.5538,0.0010669,0.00016721,0.0,0 STARLINK-4608,1 53621U 22104AK  22338.91667824  .00016721  00000-0  10669-2 0  9998,2 53621  53.2152 179.6560 0002131  53.8494 152.5538 15.08815525  1304,6917.955,95.439,541.294,538.346,0.0
53621.0,STARLINK-4608,PAYLOAD,2022-12-05 12:00:00,15.08820476,0.0002007,53.2147,177.0353,60.2519,76.4183,0.0021694,0.00034389,0.0,0 STARLINK-4608,1 53621U 22104AK  22339.50001157  .00034389  00000-0  21694-2 0  9995,2 53621  53.2147 177.0353 0002007  60.2519  76.4183 15.08820476  1303,6917.94,95.439,541.193,538.4169999999998,0.0
53621.0,STARLINK-4608,PAYLOAD,2022-12-05 17:45:23,15.08835145,0.0001985,53.2169,175.9593,54.5879,305.5298,-9.7196e-06,-4.43e-06,0.0,0 STARLINK-4608,1 53621U 22104AK  22339.73985010 -.00000443  00000-0 -97196-5 0  9998,2 53621  53.2169 175.9593 0001985  54.5879 305.5298 15.08835145 15429,6917.895,95.438,541.133,538.387,0.0
53621.0,STARLINK-4608,PAYLOAD,2022-12-05 19:20:46,15.08838169,0.0002081,53.2171,175.6617,56.1683,303.9507,-1.7192e-05,-5.62e-06,0.0,0 STARLINK-4608,1 53621U 22104AK  22339.80608884 -.00000562  00000-0 -17192-4 0  9996,2 53621  53.2171 175.6617 0002081  56.1683 303.9507 15.08838169 16004,6917.886,95.438,541.191,538.311,0.0
53621.0,STARLINK-4608,PAYLOAD,2022-12-06 12:50:00,15.08842224,0.0002051,53.2177,172.3905,57.2727,302.8462,-1.5914e-05,-5.42e-06,0.0,0 STARLINK-4608,1 53621U 22104AK  22340.53472562 -.00000542  00000-0 -15914-4 0  9998,2 53621  53.2177 172.3905 0002051  57.2727 302.8462 15.08842224 15545,6917.874,95.437,541.1569999999998,538.32,0.0
53621.0,STARLINK-4608,PAYLOAD,2022-12-06 19:11:32,15.08843063,0.0002071,53.2172,171.2014,56.7832,303.3358,1.1295e-05,-1.08e-06,0.0,0 STARLINK-4608,1 53621U 22104AK  22340.79968400 -.00000108  00000-0  11295-4 0  9992,2 53621  53.2172 171.2014 0002071  56.7832 303.3358 15.08843063 16152,6917.871,95.437,541.169,538.303,0.0
53621.0,STARLINK-4608,PAYLOAD,2022-12-07 19:02:20,15.08836049,0.0002218,53.2173,166.7413,59.2537,300.8674,1.2929e-05,-8.3e-07,0.0,0 STARLINK-4608,1 53621U 22104AK  22341.79328863 -.00000083  00000-0  12929-4 0  9993,2 53621  53.2173 166.7413 0002218  59.2537 300.8674 15.08836049 16304,6917.892,95.438,541.2919999999998,538.2230000000002,0.0
53621.0,STARLINK-4608,PAYLOAD,2022-12-07 22:13:06,15.08832736,0.0002084,53.2187,166.1458,67.0517,293.0694,-4.0123e-05,-9.27e-06,0.0,0 STARLINK-4608,1 53621U 22104AK  22341.92577251 -.00000927  00000-0 -40123-4 0  9990,2 53621  53.2187 166.1458 0002084  67.0517 293.0694 15.08832736 15750,6917.903,95.438,541.2090000000002,538.326,0.0
53621.0,STARLINK-4608,PAYLOAD,2022-12-08 12:31:34,15.08837003,0.0002146,53.217,163.4702,58.6151,301.5051,-2.4906e-05,-6.85e-06,0.0,0 STARLINK-4608,1 53621U 22104AK  22342.52193077 -.00000685  00000-0 -24906-4 0  9999,2 53621  53.2170 163.4702 0002146  58.6151 301.5051 15.08837003 16411,6917.89,95.438,541.239,538.27,0.0
53621.0,STARLINK-4608,PAYLOAD,2022-12-08 15:42:21,15.08837678,0.0002141,53.2163,162.875,57.3933,302.7265,-2.6728e-05,-7.14e-06,0.0,0 STARLINK-4608,1 53621U 22104AK  22342.65441026 -.00000714  00000-0 -26728-4 0  9990,2 53621  53.2163 162.8750 0002141  57.3933 302.7265 15.08837678 15864,6917.887,95.438,541.234,538.271,0.0
53621.0,STARLINK-4608,PAYLOAD,2022-12-09 12:22:21,15.08796973,8.08e-05,53.2179,159.0104,349.4698,10.6277,0.00053325,8.199e-05,0.0,0 STARLINK-4608,1 53621U 22104AK  22343.51552886  .00008199  00000-0  53325-3 0  9998,2 53621  53.2179 159.0104 0000808 349.4698  10.6277 15.08796973 15997,6918.012,95.44,540.436,539.318,0.0
53621.0,STARLINK-4608,PAYLOAD,2022-12-10 10:37:46,15.0882682,0.0001897,53.2174,154.8452,63.2716,296.847,-1.2131e-05,-4.81e-06,0.0,0 STARLINK-4608,1 53621U 22104AK  22344.44290192 -.00000481  00000-0 -12131-4 0  9999,2 53621  53.2174 154.8452 0001897  63.2716 296.8470 15.08826820 16700,6917.920999999999,95.438,541.0980000000002,538.4730000000002,0.0
53621.0,STARLINK-4608,PAYLOAD,2022-12-10 16:59:19,15.08833721,0.0002079,53.2175,153.6574,54.7499,305.3688,-3.0188000000000013e-05,-7.69e-06,0.0,0 STARLINK-4608,1 53621U 22104AK  22344.70786040 -.00000769  00000-0 -30188-4 0  9991,2 53621  53.2175 153.6574 0002079  54.7499 305.3688 15.08833721 16748,6917.9,95.438,541.203,538.326,0.0
53621.0,STARLINK-4608,PAYLOAD,2022-12-10 21:45:28,15.08835344,0.0002043,53.2175,152.7649,57.482,302.6369,-1.4078e-05,-5.12e-06,0.0,0 STARLINK-4608,1 53621U 22104AK  22344.90657942 -.00000512  00000-0 -14078-4 0  9997,2 53621  53.2175 152.7649 0002043  57.4820 302.6369 15.08835344 16200,6917.895,95.438,541.173,538.346,0.0
53621.0,STARLINK-4608,PAYLOAD,2022-12-11 12:03:56,15.08833198,0.000207,53.2175,150.0887,58.2933,301.8261,9.1541e-05,1.169e-05,0.0,0 STARLINK-4608,1 53621U 22104AK  22345.50273799  .00001169  00000-0  91541-4 0  9995,2 53621  53.2175 150.0887 0002070  58.2933 301.8261 15.08833198 16868,6917.901,95.438,541.198,538.3340000000002,0.0
53621.0,STARLINK-4608,PAYLOAD,2022-12-11 18:25:28,15.08836695,0.0002072,53.2176,148.8993,59.2525,300.8671,0.00011275,1.507e-05,0.0,0 STARLINK-4608,1 53621U 22104AK  22345.76769592  .00001507  00000-0  11275-3 0  9995,2 53621  53.2176 148.8993 0002072  59.2525 300.8671 15.08836695 16906,6917.89,95.438,541.189,538.322,0.0
53621.0,STARLINK-4608,PAYLOAD,2022-12-12 10:19:19,15.08846109,0.0002089,53.2177,145.9254,59.684,300.4359,0.000102,1.336e-05,0.0,0 STARLINK-4608,1 53621U 22104AK  22346.43009046  .00001336  00000-0  10200-3 0  9998,2 53621  53.2177 145.9254 0002089  59.6840 300.4359 15.08846109 16435,6917.861999999999,95.437,541.172,538.2819999999998,0.0
53621.0,STARLINK-4608,PAYLOAD,2022-12-12 11:54:43,15.08844832,0.0002078,53.2178,145.6278,60.1947,299.9251,8.379999999999999e-05,1.046e-05,0.0,0 STARLINK-4608,1 53621U 22104AK  22346.49633175  .00001046  00000-0  83800-4 0  9995,2 53621  53.2178 145.6278 0002078  60.1947 299.9251 15.08844832 17011,6917.866,95.437,541.168,538.293,0.0
53621.0,STARLINK-4608,PAYLOAD,2022-12-12 19:51:39,15.08839511,0.0002083,53.2175,144.141,58.9146,301.2051,3.3629e-05,2.47e-06,0.0,0 STARLINK-4608,1 53621U 22104AK  22346.82753619  .00000247  00000-0  33629-4 0  9994,2 53621  53.2175 144.1410 0002083  58.9146 301.2051 15.08839511 17060,6917.882,95.438,541.188,538.306,0.0
53621.0,STARLINK-4608,PAYLOAD,2022-12-13 03:48:34,15.08839746,0.0002056,53.2174,142.6542,59.5856,300.5339,2.6037e-05,1.26e-06,0.0,0 STARLINK-4608,1 53621U 22104AK  22347.15873606  .00000126  00000-0  26037-4 0  9991,2 53621  53.2174 142.6542 0002056  59.5856 300.5339 15.08839746 16546,6917.880999999999,95.438,541.168,538.3240000000002,0.0
53621.0,STARLINK-4608,PAYLOAD,2022-12-13 10:10:05,15.08859025,0.0002021,53.2176,141.4646,56.9924,303.1262,0.00016391,2.323e-05,0.0,0 STARLINK-4608,1 53621U 22104AK  22347.42367737  .00002323  00000-0  16391-3 0  9996,2 53621  53.2176 141.4646 0002021  56.9924 303.1262 15.08859025 16589,6917.821999999999,95.436,541.085,538.289,0.0
53621.0,STARLINK-4608,PAYLOAD,2022-12-13 19:42:24,15.08855345,0.0001582,53.2172,139.6799,48.7851,311.3278,6.0295e-05,6.72e-06,0.0,0 STARLINK-4608,1 53621U 22104AK  22347.82111803  .00000672  00000-0  60295-4 0  9999,2 53621  53.2172 139.6799 0001582  48.7851 311.3278 15.08855345 17212,6917.833000000001,95.437,540.793,538.604,0.0
53621.0,STARLINK-4608,PAYLOAD,2022-12-14 10:00:54,15.08826415,0.0002159,53.2168,137.0039,56.7706,303.3493,-9.0324e-05,-1.725e-05,0.0,0 STARLINK-4608,1 53621U 22104AK  22348.41730311 -.00001725  00000-0 -90324-4 0  9994,2 53621  53.2168 137.0039 0002159  56.7706 303.3493 15.08826415 17301,6917.922,95.438,541.28,538.293,0.0
53621.0,STARLINK-4608,PAYLOAD,2022-12-14 17:57:50,15.08831295,0.0001849,53.2165,135.5177,44.3416,315.7724,-0.00011241,-2.076e-05,0.0,0 STARLINK-4608,1 53621U 22104AK  22348.74850222 -.00002076  00000-0 -11241-3 0  9994,2 53621  53.2165 135.5177 0001849  44.3416 315.7724 15.08831295 16787,6917.906999999997,95.438,541.0509999999998,538.493,0.0
53621.0,STARLINK-4608,PAYLOAD,2022-12-15 13:02:27,15.08850925,0.0002024,53.2176,131.9508,45.8815,314.2343,-0.00011459,-2.112e-05,0.0,0 STARLINK-4608,1 53621U 22104AK  22349.54337208 -.00002112  00000-0 -11459-3 0  9999,2 53621  53.2176 131.9508 0002024  45.8815 314.2343 15.08850925 16908,6917.847,95.437,541.112,538.312,0.0
